{
"type": "FeatureCollection",
"name": "chicago_crimes_data",
"crs": { "type": "name", "properties": { "name": "urn:ogc:def:crs:OGC:1.3:CRS84" } },
"features": [
{ "type": "Feature", "properties": { ":id": "row-m77e_pkv8.vjvf", ":version": "rv-3hjp_vkhx~fqfx", ":created_at": "2025-04-22T23:06:36.944Z", ":updated_at": "2025-04-22T23:06:36.944Z", "area_numbe": "1", "community": "ROGERS PARK", "area_num_1": "1", "shape_area": "51259902.4506", "shape_len": "34052.3975757", "crime_count": 21628, "risk_level": 1, "risk_name": "High Risk" }, "geometry": { "type": "Polygon", "coordinates": [ [ [ -87.65455590025104, 41.99816614970252 ], [ -87.676837404514743, 41.997959318166949 ], [ -87.681930695390321, 42.009054945570867 ], [ -87.6846530946559, 42.0194847726953 ], [ -87.673117705171023, 42.019385592586353 ], [ -87.677056060688997, 42.023038586147585 ], [ -87.665126389521475, 42.022947570697568 ], [ -87.661014389668367, 42.012025939406243 ], [ -87.655062258318381, 42.006899443258362 ], [ -87.657421456193191, 42.005616213845698 ], [ -87.65455590025104, 41.99816614970252 ] ] ] } },
{ "type": "Feature", "properties": { ":id": "row-u375_347e-y6q8", ":version": "rv-tgcx_t7fr-nkkg", ":created_at": "2025-04-22T23:06:36.944Z", ":updated_at": "2025-04-22T23:06:36.944Z", "area_numbe": "2", "community": "WEST RIDGE", "area_num_1": "2", "shape_area": "98429094.8621", "shape_len": "43020.6894583", "crime_count": 19525, "risk_level": 3, "risk_name": "Low Risk" }, "geometry": { "type": "Polygon", "coordinates": [ [ [ -87.6846530946559, 42.0194847726953 ], [ -87.681760640402459, 42.008650036336071 ], [ -87.676837404514743, 41.997959318166949 ], [ -87.675012500289554, 41.99799274710572 ], [ -87.674849881717208, 41.99076157237122 ], [ -87.689672553792747, 41.9905000023141 ], [ -87.689448333154658, 41.983167685914331 ], [ -87.706901774389678, 41.983080466543015 ], [ -87.710668846764349, 41.99729359212045 ], [ -87.709453646260116, 41.997387551455056 ], [ -87.709014470623714, 42.019131106879684 ], [ -87.6846530946559, 42.0194847726953 ] ] ] } },
{ "type": "Feature", "properties": { ":id": "row-kgqf-m29p-99kg", ":version": "rv-bag4-8zri.nvhu", ":created_at": "2025-04-22T23:06:36.944Z", ":updated_at": "2025-04-22T23:06:36.944Z", "area_numbe": "3", "community": "UPTOWN", "area_num_1": "3", "shape_area": "65095642.7289", "shape_len": "46972.7945549", "crime_count": 22352, "risk_level": 1, "risk_name": "High Risk" }, "geometry": { "type": "Polygon", "coordinates": [ [ [ -87.641024302132919, 41.954802805532566 ], [ -87.662249961210307, 41.954378104457881 ], [ -87.665953562815019, 41.961634626348953 ], [ -87.673976657719933, 41.961525434932703 ], [ -87.674407567803698, 41.976103404416754 ], [ -87.651260401704135, 41.976459969940521 ], [ -87.646144959410364, 41.977836935018694 ], [ -87.646143128761693, 41.972855379973382 ], [ -87.64296523771587, 41.968055366267869 ], [ -87.631994761433674, 41.965068381286912 ], [ -87.631841422780198, 41.966694755992485 ], [ -87.630961738163364, 41.968420749695873 ], [ -87.631969354920699, 41.968541205936106 ], [ -87.631055482347392, 41.968754304291821 ], [ -87.630876416319083, 41.968371654746868 ], [ -87.631919627056178, 41.96577019091955 ], [ -87.631454237164604, 41.96245294279678 ], [ -87.640300326211417, 41.959192186742833 ], [ -87.64073507922582, 41.960786320474 ], [ -87.637319050731023, 41.960493237125171 ], [ -87.635407479896841, 41.962485972312514 ], [ -87.642123077607351, 41.961832454559108 ], [ -87.641024302132919, 41.954802805532566 ] ] ] } },
{ "type": "Feature", "properties": { ":id": "row-2dpv_pk9x-zybp", ":version": "rv-82s2~rb54~emuc", ":created_at": "2025-04-22T23:06:36.944Z", ":updated_at": "2025-04-22T23:06:36.944Z", "area_numbe": "4", "community": "LINCOLN SQUARE", "area_num_1": "4", "shape_area": "71352328.2399", "shape_len": "36624.6030848", "crime_count": 11788, "risk_level": 1, "risk_name": "High Risk" }, "geometry": { "type": "Polygon", "coordinates": [ [ [ -87.674705454839483, 41.990763470996946 ], [ -87.673976657719933, 41.961525434932703 ], [ -87.694745772548757, 41.961273425776355 ], [ -87.703218801604407, 41.971240932291948 ], [ -87.706901774389678, 41.983080466543015 ], [ -87.689448333154658, 41.983167685914331 ], [ -87.689672553792747, 41.9905000023141 ], [ -87.674705454839483, 41.990763470996946 ] ] ] } },
{ "type": "Feature", "properties": { ":id": "row-37zy.7r75.56p7", ":version": "rv-hrse.ahu7-rz4d", ":created_at": "2025-04-22T23:06:36.944Z", ":updated_at": "2025-04-22T23:06:36.944Z", "area_numbe": "5", "community": "NORTH CENTER", "area_num_1": "5", "shape_area": "57054167.85", "shape_len": "31391.6697542", "crime_count": 7231, "risk_level": 1, "risk_name": "High Risk" }, "geometry": { "type": "Polygon", "coordinates": [ [ [ -87.673364154093363, 41.932342744653504 ], [ -87.682840159720655, 41.932228712055448 ], [ -87.693633107744503, 41.940255062246358 ], [ -87.696863559833048, 41.950006256630616 ], [ -87.694554687343668, 41.953922296099712 ], [ -87.694745772548757, 41.961273425776355 ], [ -87.673976657719933, 41.961525434932703 ], [ -87.673364154093363, 41.932342744653504 ] ] ] } },
{ "type": "Feature", "properties": { ":id": "row-yywp_zb64-vcqh", ":version": "rv-zn97_9gjn~w4bj", ":created_at": "2025-04-22T23:06:36.944Z", ":updated_at": "2025-04-22T23:06:36.944Z", "area_numbe": "6", "community": "LAKE VIEW", "area_num_1": "6", "shape_area": "87214799.2728", "shape_len": "51973.0968677", "crime_count": 31800, "risk_level": 1, "risk_name": "High Risk" }, "geometry": { "type": "Polygon", "coordinates": [ [ [ -87.641024302132919, 41.954802805532566 ], [ -87.63754603248583, 41.94743333845301 ], [ -87.633027594607569, 41.942334871124217 ], [ -87.642134341260942, 41.947857668551272 ], [ -87.637115499943349, 41.939826343078309 ], [ -87.633999618399955, 41.941624128482133 ], [ -87.630442809476548, 41.933666139171386 ], [ -87.630663797338741, 41.932534404217883 ], [ -87.673364154093363, 41.932342744653504 ], [ -87.673976657719933, 41.961525434932703 ], [ -87.665953562815019, 41.961634626348953 ], [ -87.662249961210307, 41.954378104457881 ], [ -87.641024302132919, 41.954802805532566 ] ] ] } },
{ "type": "Feature", "properties": { ":id": "row-xwry.cgy2-xme6", ":version": "rv-6isj~m5td-w37i", ":created_at": "2025-04-22T23:06:36.944Z", ":updated_at": "2025-04-22T23:06:36.944Z", "area_numbe": "7", "community": "LINCOLN PARK", "area_num_1": "7", "shape_area": "88316400.4728", "shape_len": "49478.4277714", "crime_count": 20276, "risk_level": 1, "risk_name": "High Risk" }, "geometry": { "type": "Polygon", "coordinates": [ [ [ -87.631818102696144, 41.932581802633756 ], [ -87.629937802645529, 41.923547467837615 ], [ -87.627703194303578, 41.921361978682633 ], [ -87.628424603395786, 41.91917155263441 ], [ -87.626800082314929, 41.918251446013088 ], [ -87.627908946771328, 41.917600334986226 ], [ -87.623096504430961, 41.913739976593341 ], [ -87.620572380877547, 41.913370359527924 ], [ -87.62033311107507, 41.914784921969499 ], [ -87.620149187105028, 41.913923574083697 ], [ -87.620338283788683, 41.913527933273777 ], [ -87.620703526184698, 41.913216590955095 ], [ -87.627124535451657, 41.911251421021831 ], [ -87.656860797592373, 41.910784509573787 ], [ -87.658650843246434, 41.91470773454828 ], [ -87.663771081936289, 41.915678454171498 ], [ -87.668096071534677, 41.922029749129436 ], [ -87.672161303607211, 41.922806409690601 ], [ -87.674938275858395, 41.926657941875256 ], [ -87.679705184139095, 41.928464202183811 ], [ -87.68284169129204, 41.932152631425922 ], [ -87.631818102696144, 41.932581802633756 ] ] ] } },
{ "type": "Feature", "properties": { ":id": "row-urw8-srh2.596e", ":version": "rv-wviy_dd2k~6vz2", ":created_at": "2025-04-22T23:06:36.944Z", ":updated_at": "2025-04-22T23:06:36.944Z", "area_numbe": "8", "community": "NEAR NORTH SIDE", "area_num_1": "8", "shape_area": "76675895.9728", "shape_len": "57293.1649516", "crime_count": 56902, "risk_level": 1, "risk_name": "High Risk" }, "geometry": { "type": "Polygon", "coordinates": [ [ [ -87.624464766943447, 41.911566998792388 ], [ -87.623722684149584, 41.904049173822528 ], [ -87.619234855004308, 41.901098718564675 ], [ -87.61368620760669, 41.893129017101593 ], [ -87.610154494918262, 41.896227656142379 ], [ -87.602425984682327, 41.89637131433475 ], [ -87.602351955513896, 41.893264590128588 ], [ -87.609795985276705, 41.892220598810333 ], [ -87.598524387586679, 41.89145028950567 ], [ -87.60953544573303, 41.891012947190674 ], [ -87.609547515855922, 41.889314346424683 ], [ -87.611436636563667, 41.890630336979108 ], [ -87.61987212805704, 41.890465009804352 ], [ -87.61254944571634, 41.889632028035322 ], [ -87.613974313802586, 41.888408813635941 ], [ -87.625094443597447, 41.888905404372352 ], [ -87.637588385828707, 41.88623413629368 ], [ -87.644074838911422, 41.894139119663151 ], [ -87.644885786058467, 41.897694018807975 ], [ -87.65588779533023, 41.901168552498085 ], [ -87.658289011809018, 41.905041195387419 ], [ -87.657485566008063, 41.909090318520064 ], [ -87.659228774872901, 41.909070198815947 ], [ -87.656860797592373, 41.910784509573787 ], [ -87.624464766943447, 41.911566998792388 ] ] ] } },
{ "type": "Feature", "properties": { ":id": "row-7xfj.rnp5-zqwi", ":version": "rv-gmqf_vjmq~43m5", ":created_at": "2025-04-22T23:06:36.944Z", ":updated_at": "2025-04-22T23:06:36.944Z", "area_numbe": "9", "community": "EDISON PARK", "area_num_1": "9", "shape_area": "31636313.7864", "shape_len": "25937.226841", "crime_count": 1450, "risk_level": 3, "risk_name": "Low Risk" }, "geometry": { "type": "Polygon", "coordinates": [ [ [ -87.806547218823638, 42.018964573054284 ], [ -87.806818119258878, 41.995391939806574 ], [ -87.810333398922538, 41.995419651438723 ], [ -87.810353512961825, 41.997124273348028 ], [ -87.821414322920376, 41.996850529499575 ], [ -87.821253461325995, 42.011356860346659 ], [ -87.819729012465842, 42.011385586505405 ], [ -87.821209767477441, 42.01864249102529 ], [ -87.806547218823638, 42.018964573054284 ] ] ] } },
{ "type": "Feature", "properties": { ":id": "row-5fnq_9brq_fahc", ":version": "rv-rpa7-2kg8-yt7v", ":created_at": "2025-04-22T23:06:36.944Z", ":updated_at": "2025-04-22T23:06:36.944Z", "area_numbe": "10", "community": "NORWOOD PARK", "area_num_1": "10", "shape_area": "121959105.47", "shape_len": "80368.3743778", "crime_count": 6828, "risk_level": 3, "risk_name": "Low Risk" }, "geometry": { "type": "Polygon", "coordinates": [ [ [ -87.780022286300508, 41.997413553060973 ], [ -87.782851754045723, 41.997400301741507 ], [ -87.782869478342903, 41.996161090644883 ], [ -87.777818852781294, 41.993857045226214 ], [ -87.778038473464505, 41.982904855603095 ], [ -87.787734970840205, 41.982898684554385 ], [ -87.788009407659032, 41.968888239240862 ], [ -87.807156001567577, 41.96826957802827 ], [ -87.807066685347522, 41.974538213097276 ], [ -87.816917463313544, 41.974288948231276 ], [ -87.816953346034069, 41.97066019931151 ], [ -87.818986739519815, 41.970607774410595 ], [ -87.81939805900447, 41.974222571044848 ], [ -87.831729144748849, 41.973056064491047 ], [ -87.833626649686252, 41.975368048434532 ], [ -87.836626739064712, 41.975309808431106 ], [ -87.836580878743646, 41.986396111591276 ], [ -87.823327420380551, 41.984508993961995 ], [ -87.821414322920376, 41.996850529499575 ], [ -87.810353512961825, 41.997124273348028 ], [ -87.810333398922538, 41.995419651438723 ], [ -87.806818119258878, 41.995391939806574 ], [ -87.806758533753282, 42.000837360814863 ], [ -87.805294552819035, 42.001497821676566 ], [ -87.785589633465761, 41.999721248270774 ], [ -87.783060624543737, 42.000077039994423 ], [ -87.781510443747422, 42.002955612490275 ], [ -87.780022286300508, 41.997413553060973 ] ], [ [ -87.828177872723018, 41.983842219453109 ], [ -87.835071612699934, 41.982674743458972 ], [ -87.83510037430878, 41.980495200316653 ], [ -87.828859456774723, 41.980600380289744 ], [ -87.828082457202143, 41.979122863033396 ], [ -87.830023126633137, 41.97812615194988 ], [ -87.829604236470203, 41.976959124374432 ], [ -87.83362227374613, 41.97591846278835 ], [ -87.824426491522445, 41.976074785169381 ], [ -87.823520106485262, 41.983093284900576 ], [ -87.828135971503798, 41.981918589049158 ], [ -87.828177872723018, 41.983842219453109 ] ] ] } },
{ "type": "Feature", "properties": { ":id": "row-wy78-64ru~6kz2", ":version": "rv-dvtx_au9b.w44j", ":created_at": "2025-04-22T23:06:36.944Z", ":updated_at": "2025-04-22T23:06:36.944Z", "area_numbe": "11", "community": "JEFFERSON PARK", "area_num_1": "11", "shape_area": "64868161.6818", "shape_len": "44011.9571704", "crime_count": 5691, "risk_level": 3, "risk_name": "Low Risk" }, "geometry": { "type": "Polygon", "coordinates": [ [ [ -87.75263506823083, 41.967967466516036 ], [ -87.788013511643527, 41.968410626516921 ], [ -87.787734970840205, 41.982898684554385 ], [ -87.778038473464505, 41.982904855603095 ], [ -87.777818852781294, 41.993857045226214 ], [ -87.782869478342903, 41.996161090644883 ], [ -87.782851754045723, 41.997400301741507 ], [ -87.771552108752843, 41.996502139432856 ], [ -87.771365931701609, 41.994912448268067 ], [ -87.773703459695412, 41.993122027820554 ], [ -87.770934800837168, 41.99142619398387 ], [ -87.771737580728143, 41.990101218463515 ], [ -87.770479440444134, 41.989058737213099 ], [ -87.762099940845033, 41.990143592711249 ], [ -87.762285634153514, 41.987953328565744 ], [ -87.760674875423618, 41.987973707120943 ], [ -87.755059806585066, 41.97728680434647 ], [ -87.755194154448048, 41.972504771229382 ], [ -87.752813556765076, 41.97248595238797 ], [ -87.75263506823083, 41.967967466516036 ] ] ] } },
{ "type": "Feature", "properties": { ":id": "row-fdge-qymn~6kx9", ":version": "rv-y3ip.8mu5.srb9", ":created_at": "2025-04-22T23:06:36.944Z", ":updated_at": "2025-04-22T23:06:36.944Z", "area_numbe": "12", "community": "FOREST GLEN", "area_num_1": "12", "shape_area": "89130893.6364", "shape_len": "74493.821604", "crime_count": 2943, "risk_level": 3, "risk_name": "Low Risk" }, "geometry": { "type": "Polygon", "coordinates": [ [ [ -87.769185277601622, 42.004889134835643 ], [ -87.765794966788562, 42.003325242544591 ], [ -87.767543474069157, 42.004705537667924 ], [ -87.767461868591383, 42.008321650083118 ], [ -87.761664108667617, 42.00827231388287 ], [ -87.762270144151074, 42.001687245254544 ], [ -87.752900064263301, 41.997300983305486 ], [ -87.726419814091656, 41.997248695153637 ], [ -87.731862180960022, 41.990093878824034 ], [ -87.738406488242191, 41.986320183472763 ], [ -87.738306048330244, 41.982712601204575 ], [ -87.748260033170141, 41.983676890072701 ], [ -87.747520169308288, 41.968479798548728 ], [ -87.75263506823083, 41.967967466516036 ], [ -87.752813556765076, 41.97248595238797 ], [ -87.755194154448048, 41.972504771229382 ], [ -87.755059806585066, 41.97728680434647 ], [ -87.760674875423618, 41.987973707120943 ], [ -87.762285634153514, 41.987953328565744 ], [ -87.762099940845033, 41.990143592711249 ], [ -87.771117555042764, 41.989310269087689 ], [ -87.770882152451023, 41.991356205960329 ], [ -87.773711325252592, 41.993269758880757 ], [ -87.771361129231579, 41.996307189993118 ], [ -87.779712637405765, 41.996784241016968 ], [ -87.780987536881739, 42.002869207311718 ], [ -87.783175236955941, 42.000020180793769 ], [ -87.790193962500695, 42.000613117912252 ], [ -87.782003124847023, 42.004497719387778 ], [ -87.788722740962939, 42.011996714781141 ], [ -87.779266230660696, 42.011991714449735 ], [ -87.779103771859752, 42.015441938273767 ], [ -87.776972216817271, 42.015385578768971 ], [ -87.777053244931096, 42.011982328159803 ], [ -87.773349457606187, 42.01195828136418 ], [ -87.769185277601622, 42.004889134835643 ] ] ] } },
{ "type": "Feature", "properties": { ":id": "row-uu4u~sekf~77ge", ":version": "rv-wag9_jv9q~tbba", ":created_at": "2025-04-22T23:06:36.944Z", ":updated_at": "2025-04-22T23:06:36.944Z", "area_numbe": "13", "community": "NORTH PARK", "area_num_1": "13", "shape_area": "70288706.4343", "shape_len": "41581.9486539", "crime_count": 5113, "risk_level": 1, "risk_name": "High Risk" }, "geometry": { "type": "Polygon", "coordinates": [ [ [ -87.710670895194696, 41.997365665447717 ], [ -87.704037713409079, 41.973551582986154 ], [ -87.708737016661942, 41.974675107478838 ], [ -87.715665788784733, 41.971920614979418 ], [ -87.725965868456782, 41.976116107366053 ], [ -87.728233387056036, 41.975532007608265 ], [ -87.728131773714921, 41.971884067190217 ], [ -87.731831266555659, 41.971844733575914 ], [ -87.73317138209373, 41.97547986281495 ], [ -87.747992935974807, 41.975340793224845 ], [ -87.748260033170141, 41.983676890072701 ], [ -87.738306048330244, 41.982712601204575 ], [ -87.738406488242191, 41.986320183472763 ], [ -87.731862180960022, 41.990093878824034 ], [ -87.726419814091656, 41.997248695153637 ], [ -87.710670895194696, 41.997365665447717 ] ] ] } },
{ "type": "Feature", "properties": { ":id": "row-yqtj_x2ni.2p9d", ":version": "rv-mkvq~3y5t-ktxu", ":created_at": "2025-04-22T23:06:36.944Z", ":updated_at": "2025-04-22T23:06:36.944Z", "area_numbe": "14", "community": "ALBANY PARK", "area_num_1": "14", "shape_area": "53542230.8191", "shape_len": "39339.0164387", "crime_count": 12721, "risk_level": 2, "risk_name": "Moderate Risk" }, "geometry": { "type": "Polygon", "coordinates": [ [ [ -87.704037713409079, 41.973551582986154 ], [ -87.694745772548757, 41.961273425776355 ], [ -87.729693464263775, 41.960926884572672 ], [ -87.737851357516817, 41.966540237332779 ], [ -87.737902288535025, 41.968133930008435 ], [ -87.747721795861239, 41.968028722766398 ], [ -87.747992935974807, 41.975340793224845 ], [ -87.73317138209373, 41.97547986281495 ], [ -87.731831266555659, 41.971844733575914 ], [ -87.728131773714921, 41.971884067190217 ], [ -87.728233387056036, 41.975532007608265 ], [ -87.725965868456782, 41.976116107366053 ], [ -87.715665788784733, 41.971920614979418 ], [ -87.708737016661942, 41.974675107478838 ], [ -87.704037713409079, 41.973551582986154 ] ] ] } },
{ "type": "Feature", "properties": { ":id": "row-3d38~bbrn~444h", ":version": "rv-yz3j~4yvm_jqiq", ":created_at": "2025-04-22T23:06:36.944Z", ":updated_at": "2025-04-22T23:06:36.944Z", "area_numbe": "15", "community": "PORTAGE PARK", "area_num_1": "15", "shape_area": "110196097.139", "shape_len": "46520.6421377", "crime_count": 17231, "risk_level": 3, "risk_name": "Low Risk" }, "geometry": { "type": "Polygon", "coordinates": [ [ [ -87.786772374670207, 41.968427015116752 ], [ -87.747721795861239, 41.968028722766398 ], [ -87.747908237611128, 41.963481663979948 ], [ -87.744439389924565, 41.960756007169472 ], [ -87.746483618092611, 41.960735809991647 ], [ -87.742498694427169, 41.953474307130115 ], [ -87.742108283338752, 41.938891636533263 ], [ -87.776214629422313, 41.938448146383237 ], [ -87.776774803283161, 41.953056144195713 ], [ -87.786559506769294, 41.95291650419793 ], [ -87.786772374670207, 41.968427015116752 ] ] ] } },
{ "type": "Feature", "properties": { ":id": "row-yp55.2di4.78cp", ":version": "rv-8ajt~4yxi-ayzn", ":created_at": "2025-04-22T23:06:36.944Z", ":updated_at": "2025-04-22T23:06:36.944Z", "area_numbe": "16", "community": "IRVING PARK", "area_num_1": "16", "shape_area": "89611382.3106", "shape_len": "49083.2240938", "crime_count": 14370, "risk_level": 3, "risk_name": "Low Risk" }, "geometry": { "type": "Polygon", "coordinates": [ [ [ -87.694745772548757, 41.961273425776355 ], [ -87.696204473121526, 41.94669596936766 ], [ -87.727401077178982, 41.94637316890546 ], [ -87.727185362670795, 41.939095135277825 ], [ -87.742108283338752, 41.938891636533263 ], [ -87.742498694427169, 41.953474307130115 ], [ -87.746483618092611, 41.960735809991647 ], [ -87.744439389924565, 41.960756007169472 ], [ -87.747908237611128, 41.963481663979948 ], [ -87.747721795861239, 41.968028722766398 ], [ -87.737902288535025, 41.968133930008435 ], [ -87.737851357516817, 41.966540237332779 ], [ -87.729693464263775, 41.960926884572672 ], [ -87.694745772548757, 41.961273425776355 ] ] ] } },
{ "type": "Feature", "properties": { ":id": "row-piui-nkvv-8tyh", ":version": "rv-3rre_4pz6_rbpi", ":created_at": "2025-04-22T23:06:36.944Z", ":updated_at": "2025-04-22T23:06:36.944Z", "area_numbe": "17", "community": "DUNNING", "area_num_1": "17", "shape_area": "103595001.175", "shape_len": "54555.9925337", "crime_count": 8711, "risk_level": 3, "risk_name": "Low Risk" }, "geometry": { "type": "Polygon", "coordinates": [ [ [ -87.776214629422313, 41.938448146383237 ], [ -87.806746806742339, 41.93799634594086 ], [ -87.806623557292326, 41.934511183477973 ], [ -87.816390390986413, 41.934312543159656 ], [ -87.81651876080781, 41.937938765797966 ], [ -87.834810170938383, 41.937576421607091 ], [ -87.836698864488042, 41.959360211773941 ], [ -87.832677842233224, 41.959438149894716 ], [ -87.831793026757168, 41.952163820899784 ], [ -87.807269233539131, 41.952764606971265 ], [ -87.794327930301918, 41.960030311109861 ], [ -87.7868054038927, 41.960217020558268 ], [ -87.786559506769294, 41.95291650419793 ], [ -87.776774803283161, 41.953056144195713 ], [ -87.776214629422313, 41.938448146383237 ] ] ] } },
{ "type": "Feature", "properties": { ":id": "row-bnz2-sz8x.dwkj", ":version": "rv-5jmd.xhh4.y5js", ":created_at": "2025-04-22T23:06:36.944Z", ":updated_at": "2025-04-22T23:06:36.944Z", "area_numbe": "18", "community": "MONTCLARE", "area_num_1": "18", "shape_area": "27576393.6325", "shape_len": "22404.8521448", "crime_count": 3495, "risk_level": 2, "risk_name": "Moderate Risk" }, "geometry": { "type": "Polygon", "coordinates": [ [ [ -87.789415114058045, 41.91751009632965 ], [ -87.806229801364921, 41.923368243087779 ], [ -87.806746806742339, 41.93799634594086 ], [ -87.790769187574128, 41.938238614094587 ], [ -87.789415114058045, 41.91751009632965 ] ] ] } },
{ "type": "Feature", "properties": { ":id": "row-ufd6_cwd3~fgga", ":version": "rv-njre~7vyp-vquu", ":created_at": "2025-04-22T23:06:36.944Z", ":updated_at": "2025-04-22T23:06:36.944Z", "area_numbe": "19", "community": "BELMONT CRAGIN", "area_num_1": "19", "shape_area": "109099414.689", "shape_len": "43311.707379", "crime_count": 24678, "risk_level": 2, "risk_name": "Moderate Risk" }, "geometry": { "type": "Polygon", "coordinates": [ [ [ -87.741335448058052, 41.913897604599597 ], [ -87.763814188328737, 41.916626206574087 ], [ -87.789265824559521, 41.917431564225154 ], [ -87.790769187574128, 41.938238614094587 ], [ -87.742174977840492, 41.938890779072445 ], [ -87.741335448058052, 41.913897604599597 ] ] ] } },
{ "type": "Feature", "properties": { ":id": "row-6isf.94a4-4zr4", ":version": "rv-ugic-m8be_47ks", ":created_at": "2025-04-22T23:06:36.944Z", ":updated_at": "2025-04-22T23:06:36.944Z", "area_numbe": "20", "community": "HERMOSA", "area_num_1": "20", "shape_area": "32602059.4055", "shape_len": "27179.0174378", "crime_count": 6640, "risk_level": 2, "risk_name": "Moderate Risk" }, "geometry": { "type": "Polygon", "coordinates": [ [ [ -87.735222035602177, 41.938986201525296 ], [ -87.726768584021301, 41.924483954654114 ], [ -87.726614998839906, 41.918993622270186 ], [ -87.724875843001087, 41.919016331460696 ], [ -87.722347548517703, 41.913635112450528 ], [ -87.741335448058052, 41.913897604599597 ], [ -87.742174977840492, 41.938890779072445 ], [ -87.735222035602177, 41.938986201525296 ] ] ] } },
{ "type": "Feature", "properties": { ":id": "row-rz2v~pr7m~auv5", ":version": "rv-c7ha~zyp7-kie5", ":created_at": "2025-04-22T23:06:36.944Z", ":updated_at": "2025-04-22T23:06:36.944Z", "area_numbe": "21", "community": "AVONDALE", "area_num_1": "21", "shape_area": "55290595.473", "shape_len": "34261.9334038", "crime_count": 11198, "risk_level": 1, "risk_name": "High Risk" }, "geometry": { "type": "Polygon", "coordinates": [ [ [ -87.687986787851699, 41.93610394035656 ], [ -87.687882691120535, 41.932179125823318 ], [ -87.731460134840162, 41.931733972217017 ], [ -87.735222035602177, 41.938986201525296 ], [ -87.727185362670795, 41.939095135277825 ], [ -87.727401077178982, 41.94637316890546 ], [ -87.696204473121526, 41.94669596936766 ], [ -87.693633107744503, 41.940255062246358 ], [ -87.687986787851699, 41.93610394035656 ] ] ] } },
{ "type": "Feature", "properties": { ":id": "row-8k59~rp99_gk4e", ":version": "rv-agh6.4pwt_azwu", ":created_at": "2025-04-22T23:06:36.944Z", ":updated_at": "2025-04-22T23:06:36.944Z", "area_numbe": "22", "community": "LOGAN SQUARE", "area_num_1": "22", "shape_area": "100057566.7", "shape_len": "49213.4217488", "crime_count": 25497, "risk_level": 1, "risk_name": "High Risk" }, "geometry": { "type": "Polygon", "coordinates": [ [ [ -87.687986787851699, 41.93610394035656 ], [ -87.679705184139095, 41.928464202183811 ], [ -87.674938275858395, 41.926657941875256 ], [ -87.672161303607211, 41.922806409690601 ], [ -87.668096071534677, 41.922029749129436 ], [ -87.663620560007786, 41.915615005757481 ], [ -87.66743699456741, 41.914281244579584 ], [ -87.682446863078326, 41.914619154748493 ], [ -87.682419508081921, 41.913582235852516 ], [ -87.722347548517703, 41.913635112450528 ], [ -87.724875843001087, 41.919016331460696 ], [ -87.726614998839906, 41.918993622270186 ], [ -87.726768584021301, 41.924483954654114 ], [ -87.731460134840162, 41.931733972217017 ], [ -87.687882691120535, 41.932179125823318 ], [ -87.687986787851699, 41.93610394035656 ] ] ] } },
{ "type": "Feature", "properties": { ":id": "row-vb9e-3ynd_mud5", ":version": "rv-s9ya_9ick-yrkj", ":created_at": "2025-04-22T23:06:36.944Z", ":updated_at": "2025-04-22T23:06:36.944Z", "area_numbe": "23", "community": "HUMBOLDT PARK", "area_num_1": "23", "shape_area": "100480876.502", "shape_len": "48583.0643299", "crime_count": 37439, "risk_level": 0, "risk_name": "Very High Risk" }, "geometry": { "type": "Polygon", "coordinates": [ [ [ -87.691570009487734, 41.888195634180995 ], [ -87.740595675100067, 41.887823168116924 ], [ -87.741335448058052, 41.913897604599597 ], [ -87.701980508224239, 41.91392121958868 ], [ -87.70186599251484, 41.910173043555254 ], [ -87.706986244231203, 41.910063266286642 ], [ -87.706674456627255, 41.899195400613614 ], [ -87.701951128849728, 41.899238356643878 ], [ -87.702204047076521, 41.89559488552748 ], [ -87.696702633729373, 41.895653518299376 ], [ -87.696671116771697, 41.894333273557159 ], [ -87.6916677819315, 41.89233237886836 ], [ -87.691570009487734, 41.888195634180995 ] ] ] } },
{ "type": "Feature", "properties": { ":id": "row-733z_2rid_hgnz", ":version": "rv-8dyp.ruva.2fgv", ":created_at": "2025-04-22T23:06:36.944Z", ":updated_at": "2025-04-22T23:06:36.944Z", "area_numbe": "24", "community": "WEST TOWN", "area_num_1": "24", "shape_area": "127562904.597", "shape_len": "55203.7186956", "crime_count": 39090, "risk_level": 1, "risk_name": "High Risk" }, "geometry": { "type": "Polygon", "coordinates": [ [ [ -87.656860797592373, 41.910784509573787 ], [ -87.659228774872901, 41.909070198815947 ], [ -87.657485566008063, 41.909090318520064 ], [ -87.658289011809018, 41.905041195387419 ], [ -87.65588779533023, 41.901168552498085 ], [ -87.644885786058467, 41.897694018807975 ], [ -87.644074838911422, 41.894139119663151 ], [ -87.639360982943543, 41.889080284242908 ], [ -87.691570009487734, 41.888195634180995 ], [ -87.6916677819315, 41.89233237886836 ], [ -87.696671116771697, 41.894333273557159 ], [ -87.696702633729373, 41.895653518299376 ], [ -87.702204047076521, 41.89559488552748 ], [ -87.701951128849728, 41.899238356643878 ], [ -87.706674456627255, 41.899195400613614 ], [ -87.706986244231203, 41.910063266286642 ], [ -87.70186599251484, 41.910173043555254 ], [ -87.701980508224239, 41.91392121958868 ], [ -87.66743699456741, 41.914281244579584 ], [ -87.661172225923224, 41.916182423496203 ], [ -87.658077227071743, 41.914108058041975 ], [ -87.656860797592373, 41.910784509573787 ] ] ] } },
{ "type": "Feature", "properties": { ":id": "row-bkdv_rqkd.8udw", ":version": "rv-kybu~ua6u-gn7q", ":created_at": "2025-04-22T23:06:36.944Z", ":updated_at": "2025-04-22T23:06:36.944Z", "area_numbe": "25", "community": "AUSTIN", "area_num_1": "25", "shape_area": "199254203.427", "shape_len": "75226.4749167", "crime_count": 70276, "risk_level": 0, "risk_name": "Very High Risk" }, "geometry": { "type": "Polygon", "coordinates": [ [ [ -87.789415114058045, 41.91751009632965 ], [ -87.763814188328737, 41.916626206574087 ], [ -87.741335448058052, 41.913897604599597 ], [ -87.739766471335741, 41.865962195041625 ], [ -87.774138851768498, 41.865459150649912 ], [ -87.775599305623189, 41.90925355528487 ], [ -87.80574541300733, 41.908839350923415 ], [ -87.806229801364921, 41.923368243087779 ], [ -87.789415114058045, 41.91751009632965 ] ] ] } },
{ "type": "Feature", "properties": { ":id": "row-u9vi-mird.7ax8", ":version": "rv-ivu6-88gz.65u9", ":created_at": "2025-04-22T23:06:36.944Z", ":updated_at": "2025-04-22T23:06:36.944Z", "area_numbe": "26", "community": "WEST GARFIELD PARK", "area_num_1": "26", "shape_area": "36092848.8151", "shape_len": "26238.5419796", "crime_count": 22826, "risk_level": 0, "risk_name": "Very High Risk" }, "geometry": { "type": "Polygon", "coordinates": [ [ [ -87.720983301940478, 41.888067055941917 ], [ -87.720196061237317, 41.868587107932875 ], [ -87.732577632950651, 41.868998937044296 ], [ -87.732672889385853, 41.870976826395335 ], [ -87.739894242164965, 41.86896303189959 ], [ -87.740595675100067, 41.887823168116924 ], [ -87.720983301940478, 41.888067055941917 ] ] ] } },
{ "type": "Feature", "properties": { ":id": "row-kw7i_8e2k-ftw9", ":version": "rv-jdiv_t9kk_eqmv", ":created_at": "2025-04-22T23:06:36.944Z", ":updated_at": "2025-04-22T23:06:36.944Z", "area_numbe": "27", "community": "EAST GARFIELD PARK", "area_num_1": "27", "shape_area": "53883220.8462", "shape_len": "31514.6259565", "crime_count": 22751, "risk_level": 0, "risk_name": "Very High Risk" }, "geometry": { "type": "Polygon", "coordinates": [ [ [ -87.720983301940478, 41.888067055941917 ], [ -87.688671510409776, 41.888174593173225 ], [ -87.691151793204185, 41.887095941992236 ], [ -87.69227959523586, 41.884404449252237 ], [ -87.691192772347534, 41.869294657032697 ], [ -87.72023936013656, 41.869869084441241 ], [ -87.720983301940478, 41.888067055941917 ] ] ] } },
{ "type": "Feature", "properties": { ":id": "row-5fdv_ghbm.24bc", ":version": "rv-jexv_njeh_ubvq", ":created_at": "2025-04-22T23:06:36.944Z", ":updated_at": "2025-04-22T23:06:36.944Z", "area_numbe": "28", "community": "NEAR WEST SIDE", "area_num_1": "28", "shape_area": "158492466.554", "shape_len": "53003.5929406", "crime_count": 51979, "risk_level": 1, "risk_name": "High Risk" }, "geometry": { "type": "Polygon", "coordinates": [ [ [ -87.637588385828707, 41.88623413629368 ], [ -87.63811419965748, 41.879182204099735 ], [ -87.634728296178238, 41.867262013200893 ], [ -87.635158159375877, 41.857722095253074 ], [ -87.638935723197918, 41.857665474705335 ], [ -87.6390136663112, 41.860018026734757 ], [ -87.688168913203924, 41.859337845394698 ], [ -87.688182005901027, 41.863056826999575 ], [ -87.691161756423512, 41.868358273500263 ], [ -87.69227959523586, 41.884404449252237 ], [ -87.690524474516607, 41.887577820565639 ], [ -87.639360982943543, 41.889080284242908 ], [ -87.637588385828707, 41.88623413629368 ] ] ] } },
{ "type": "Feature", "properties": { ":id": "row-caqk-p2p8-twmn", ":version": "rv-m92d.d7im~wga3", ":created_at": "2025-04-22T23:06:36.944Z", ":updated_at": "2025-04-22T23:06:36.944Z", "area_numbe": "29", "community": "NORTH LAWNDALE", "area_num_1": "29", "shape_area": "89487422.0242", "shape_len": "44959.4596627", "crime_count": 38238, "risk_level": 0, "risk_name": "Very High Risk" }, "geometry": { "type": "Polygon", "coordinates": [ [ [ -87.72023936013656, 41.869869084441241 ], [ -87.691192772347534, 41.869294657032697 ], [ -87.688182005901027, 41.863056826999575 ], [ -87.687962214969289, 41.856985640739367 ], [ -87.702928884061237, 41.855450964417116 ], [ -87.70287726404959, 41.853801672271572 ], [ -87.711202904373053, 41.85355074437512 ], [ -87.712421513117349, 41.851706670705639 ], [ -87.72228123658661, 41.85158163975975 ], [ -87.722226652924789, 41.84936084326079 ], [ -87.739323089747188, 41.845592853944659 ], [ -87.739894242164965, 41.86896303189959 ], [ -87.732672889385853, 41.870976826395335 ], [ -87.732577632950651, 41.868998937044296 ], [ -87.720196061237317, 41.868587107932875 ], [ -87.72023936013656, 41.869869084441241 ] ] ] } },
{ "type": "Feature", "properties": { ":id": "row-niyf~pi94-umnd", ":version": "rv-ad72-z99x-yiif", ":created_at": "2025-04-22T23:06:36.944Z", ":updated_at": "2025-04-22T23:06:36.944Z", "area_numbe": "30", "community": "SOUTH LAWNDALE", "area_num_1": "30", "shape_area": "127998297.867", "shape_len": "49904.0452102", "crime_count": 22892, "risk_level": 0, "risk_name": "Very High Risk" }, "geometry": { "type": "Polygon", "coordinates": [ [ [ -87.68739948177965, 41.834800982012965 ], [ -87.704607440339942, 41.829798178821456 ], [ -87.738556581432221, 41.818706144260389 ], [ -87.739323089747188, 41.845592853944659 ], [ -87.722226652924789, 41.84936084326079 ], [ -87.72228123658661, 41.85158163975975 ], [ -87.712421513117349, 41.851706670705639 ], [ -87.711202904373053, 41.85355074437512 ], [ -87.70287726404959, 41.853801672271572 ], [ -87.702928884061237, 41.855450964417116 ], [ -87.68803384628572, 41.856969764843399 ], [ -87.68739948177965, 41.834800982012965 ] ] ] } },
{ "type": "Feature", "properties": { ":id": "row-2tsy_594g.varg", ":version": "rv-5dze~w9nc~6zsw", ":created_at": "2025-04-22T23:06:36.944Z", ":updated_at": "2025-04-22T23:06:36.944Z", "area_numbe": "31", "community": "LOWER WEST SIDE", "area_num_1": "31", "shape_area": "81550723.6377", "shape_len": "43229.3727036", "crime_count": 14479, "risk_level": 2, "risk_name": "Moderate Risk" }, "geometry": { "type": "Polygon", "coordinates": [ [ [ -87.635158159375877, 41.857722095253074 ], [ -87.643315675957879, 41.849693006260651 ], [ -87.658604633881367, 41.847264845351823 ], [ -87.663606853550704, 41.844405993299489 ], [ -87.664968968614573, 41.841618868764307 ], [ -87.664285117881619, 41.839065031441905 ], [ -87.66650632320659, 41.837861274266231 ], [ -87.679661431350723, 41.837102034154604 ], [ -87.687457905019016, 41.834913102147773 ], [ -87.688073004997179, 41.859338426248563 ], [ -87.6390136663112, 41.860018026734757 ], [ -87.638935723197918, 41.857665474705335 ], [ -87.635158159375877, 41.857722095253074 ] ] ] } },
{ "type": "Feature", "properties": { ":id": "row-wem7~h3ra.twp6", ":version": "rv-he2j~uawf-8awz", ":created_at": "2025-04-22T23:06:36.944Z", ":updated_at": "2025-04-22T23:06:36.944Z", "area_numbe": "32", "community": "LOOP", "area_num_1": "32", "shape_area": "46335565.4586", "shape_len": "39428.6729962", "crime_count": 42890, "risk_level": 1, "risk_name": "High Risk" }, "geometry": { "type": "Polygon", "coordinates": [ [ [ -87.611233341241004, 41.88931014006117 ], [ -87.602455712112032, 41.888329001039303 ], [ -87.609846444194204, 41.887970422261503 ], [ -87.609985887838661, 41.884080327617284 ], [ -87.616399380088041, 41.882022519428311 ], [ -87.615352460010882, 41.868304279187015 ], [ -87.634734018656445, 41.86731465773962 ], [ -87.638233743527067, 41.87999363221099 ], [ -87.637439698541442, 41.886419625006894 ], [ -87.625094443597447, 41.888905404372352 ], [ -87.613974313802586, 41.888408813635941 ], [ -87.61254944571634, 41.889632028035322 ], [ -87.61987212805704, 41.890465009804352 ], [ -87.611436636563667, 41.890630336979108 ], [ -87.611233341241004, 41.88931014006117 ] ] ] } },
{ "type": "Feature", "properties": { ":id": "row-edmz_jpte~iha6", ":version": "rv-g4yb.f8f3~yu4x", ":created_at": "2025-04-22T23:06:36.944Z", ":updated_at": "2025-04-22T23:06:36.944Z", "area_numbe": "33", "community": "NEAR SOUTH SIDE", "area_num_1": "33", "shape_area": "49769639.4541", "shape_len": "45053.1651038", "crime_count": 13311, "risk_level": 1, "risk_name": "High Risk" }, "geometry": { "type": "Polygon", "coordinates": [ [ [ -87.609140876178941, 41.844692502653977 ], [ -87.629168184648393, 41.845556605816 ], [ -87.630226406921068, 41.857779149425909 ], [ -87.635158159375877, 41.857722095253074 ], [ -87.634734018656445, 41.86731465773962 ], [ -87.613638031212332, 41.868506337114589 ], [ -87.612687842361936, 41.866753089232162 ], [ -87.605886448042838, 41.866932520427447 ], [ -87.606045391712101, 41.864793616782109 ], [ -87.607579299511457, 41.864273955328855 ], [ -87.606021005340295, 41.862005470328114 ], [ -87.606510735097828, 41.853358578722762 ], [ -87.609897283006177, 41.853770385309566 ], [ -87.610480372315095, 41.865864651551121 ], [ -87.61266898965124, 41.865842730933046 ], [ -87.61343989614825, 41.863370771207549 ], [ -87.612150377863486, 41.860345541955724 ], [ -87.612852593396411, 41.856355827665503 ], [ -87.609221800105175, 41.850908728757354 ], [ -87.609140876178941, 41.844692502653977 ] ] ] } },
{ "type": "Feature", "properties": { ":id": "row-cg4t.wdwn_i2pt", ":version": "rv-ciwu_8ina_cwyu", ":created_at": "2025-04-22T23:06:36.944Z", ":updated_at": "2025-04-22T23:06:36.944Z", "area_numbe": "34", "community": "ARMOUR SQUARE", "area_num_1": "34", "shape_area": "27766196.0954", "shape_len": "31948.5988398", "crime_count": 6038, "risk_level": 1, "risk_name": "High Risk" }, "geometry": { "type": "Polygon", "coordinates": [ [ [ -87.630226406921068, 41.857779149425909 ], [ -87.628968199713611, 41.823681491629785 ], [ -87.633963923073921, 41.823613287045674 ], [ -87.636403841950539, 41.827230909404506 ], [ -87.636512039002326, 41.843642687757836 ], [ -87.638291489565773, 41.843616780689182 ], [ -87.638357832000636, 41.846182556010298 ], [ -87.641600072359068, 41.84630055170129 ], [ -87.641623658157783, 41.848192778426046 ], [ -87.64399883446832, 41.84950523850744 ], [ -87.635158159375877, 41.857722095253074 ], [ -87.630226406921068, 41.857779149425909 ] ] ] } },
{ "type": "Feature", "properties": { ":id": "row-bmyu.whpy-d9pk", ":version": "rv-ewe8_eg6x-83wj", ":created_at": "2025-04-22T23:06:36.944Z", ":updated_at": "2025-04-22T23:06:36.944Z", "area_numbe": "35", "community": "DOUGLAS", "area_num_1": "35", "shape_area": "46004621.1581", "shape_len": "31027.0545098", "crime_count": 15663, "risk_level": 2, "risk_name": "Moderate Risk" }, "geometry": { "type": "Polygon", "coordinates": [ [ [ -87.609140876178941, 41.844692502653977 ], [ -87.607095230072346, 41.839512036959192 ], [ -87.604185063222914, 41.839828572849825 ], [ -87.606071675238553, 41.837293058456886 ], [ -87.60271020373473, 41.831366246868491 ], [ -87.610633357790618, 41.831186224615507 ], [ -87.612624272403238, 41.823890804368261 ], [ -87.628968199713611, 41.823681491629785 ], [ -87.629965244405028, 41.845544837610099 ], [ -87.609140876178941, 41.844692502653977 ] ] ] } },
{ "type": "Feature", "properties": { ":id": "row-anjz.9767-8vxc", ":version": "rv-e7bn~tjn4.6e4c", ":created_at": "2025-04-22T23:06:36.944Z", ":updated_at": "2025-04-22T23:06:36.944Z", "area_numbe": "36", "community": "OAKLAND", "area_num_1": "36", "shape_area": "16913961.0408", "shape_len": "19565.5061533", "crime_count": 4374, "risk_level": 2, "risk_name": "Moderate Risk" }, "geometry": { "type": "Polygon", "coordinates": [ [ [ -87.592152838793936, 41.816929346266839 ], [ -87.606708125612499, 41.816813770572182 ], [ -87.606873058331544, 41.82396480017465 ], [ -87.612624272403238, 41.823890804368261 ], [ -87.610633357790618, 41.831186224615507 ], [ -87.60271020373473, 41.831366246868491 ], [ -87.597754884029669, 41.82634380429046 ], [ -87.59727092138688, 41.822617829443594 ], [ -87.592152838793936, 41.816929346266839 ] ] ] } },
{ "type": "Feature", "properties": { ":id": "row-22ma~temp_rg3c", ":version": "rv-f2r9-v26q.r7r3", ":created_at": "2025-04-22T23:06:36.944Z", ":updated_at": "2025-04-22T23:06:36.944Z", "area_numbe": "37", "community": "FULLER PARK", "area_num_1": "37", "shape_area": "19916704.8692", "shape_len": "25339.0897503", "crime_count": 3471, "risk_level": 0, "risk_name": "Very High Risk" }, "geometry": { "type": "Polygon", "coordinates": [ [ [ -87.629356524929463, 41.82367645970583 ], [ -87.62855540676513, 41.794599284530136 ], [ -87.635457499123632, 41.794476047781181 ], [ -87.636117879671048, 41.823585779024796 ], [ -87.629356524929463, 41.82367645970583 ] ] ] } },
{ "type": "Feature", "properties": { ":id": "row-wvzp_b32e_55u4", ":version": "rv-t9gx-4dh6-27xe", ":created_at": "2025-04-22T23:06:36.944Z", ":updated_at": "2025-04-22T23:06:36.944Z", "area_numbe": "38", "community": "GRAND BOULEVARD", "area_num_1": "38", "shape_area": "48492503.1554", "shape_len": "28196.8371573", "crime_count": 18736, "risk_level": 2, "risk_name": "Moderate Risk" }, "geometry": { "type": "Polygon", "coordinates": [ [ [ -87.606873058331544, 41.82396480017465 ], [ -87.606407205528512, 41.802251162319088 ], [ -87.62879823733725, 41.80189303368919 ], [ -87.629356524929463, 41.82367645970583 ], [ -87.606873058331544, 41.82396480017465 ] ] ] } },
{ "type": "Feature", "properties": { ":id": "row-bqkp_gf5h.6b3b", ":version": "rv-ewqw-yxmg-fkbn", ":created_at": "2025-04-22T23:06:36.944Z", ":updated_at": "2025-04-22T23:06:36.944Z", "area_numbe": "39", "community": "KENWOOD", "area_num_1": "39", "shape_area": "29071741.9283", "shape_len": "23325.1679062", "crime_count": 10168, "risk_level": 2, "risk_name": "Moderate Risk" }, "geometry": { "type": "Polygon", "coordinates": [ [ [ -87.592152838793936, 41.816929346266839 ], [ -87.585157698049443, 41.807215285892774 ], [ -87.580114773521316, 41.803927152324093 ], [ -87.580376620854182, 41.802525022051263 ], [ -87.606407205528512, 41.802251162319088 ], [ -87.606708125612499, 41.816813770572182 ], [ -87.592152838793936, 41.816929346266839 ] ] ] } },
{ "type": "Feature", "properties": { ":id": "row-r9cw~cmjy-e58m", ":version": "rv-3eh5~fkis-e34m", ":created_at": "2025-04-22T23:06:36.944Z", ":updated_at": "2025-04-22T23:06:36.944Z", "area_numbe": "40", "community": "WASHINGTON PARK", "area_num_1": "40", "shape_area": "42373881.4842", "shape_len": "28175.3160866", "crime_count": 13213, "risk_level": 0, "risk_name": "Very High Risk" }, "geometry": { "type": "Polygon", "coordinates": [ [ [ -87.606037492170046, 41.785874064994196 ], [ -87.615759541549778, 41.785698913757336 ], [ -87.615622330437745, 41.780239137635192 ], [ -87.625374849104503, 41.78005828551585 ], [ -87.625404065848713, 41.783209976737233 ], [ -87.628262591871575, 41.783160302153831 ], [ -87.62879823733725, 41.80189303368919 ], [ -87.606407205528512, 41.802251162319088 ], [ -87.606037492170046, 41.785874064994196 ] ] ] } },
{ "type": "Feature", "properties": { ":id": "row-yp2x_n924-fzeb", ":version": "rv-gu7v_pgj6~iegv", ":created_at": "2025-04-22T23:06:36.944Z", ":updated_at": "2025-04-22T23:06:36.944Z", "area_numbe": "41", "community": "HYDE PARK", "area_num_1": "41", "shape_area": "45105380.1732", "shape_len": "29746.7082016", "crime_count": 12091, "risk_level": 1, "risk_name": "High Risk" }, "geometry": { "type": "Polygon", "coordinates": [ [ [ -87.580376620854182, 41.802525022051263 ], [ -87.579937261042218, 41.798369145280411 ], [ -87.575164369141902, 41.796240441004457 ], [ -87.57893908794901, 41.794272395943501 ], [ -87.579628143928645, 41.792035545118594 ], [ -87.576320343474265, 41.788570115680386 ], [ -87.577759007212876, 41.788297557387658 ], [ -87.577144568913354, 41.786146410134393 ], [ -87.606037492170046, 41.785874064994196 ], [ -87.606407205528512, 41.802251162319088 ], [ -87.580376620854182, 41.802525022051263 ] ] ] } },
{ "type": "Feature", "properties": { ":id": "row-g7hg_rqbk-ex4g", ":version": "rv-kgdn-w8ak.xpmp", ":created_at": "2025-04-22T23:06:36.944Z", ":updated_at": "2025-04-22T23:06:36.944Z", "area_numbe": "42", "community": "WOODLAWN", "area_num_1": "42", "shape_area": "57815179.512", "shape_len": "46936.9592443", "crime_count": 20404, "risk_level": 2, "risk_name": "Moderate Risk" }, "geometry": { "type": "Polygon", "coordinates": [ [ [ -87.577144568913354, 41.786146410134393 ], [ -87.576045904092439, 41.783598409575738 ], [ -87.570496917544105, 41.781371208892843 ], [ -87.568396842639359, 41.781608405016016 ], [ -87.567532320442922, 41.7845966436726 ], [ -87.568305562471593, 41.78153885635637 ], [ -87.573079598296403, 41.780250548506743 ], [ -87.575302637983555, 41.777407886573464 ], [ -87.575043266032537, 41.775785453274224 ], [ -87.571998344964996, 41.775821243791 ], [ -87.573360676416613, 41.778305611067793 ], [ -87.572238157494752, 41.779227944514382 ], [ -87.566448186421894, 41.773791081996691 ], [ -87.605768753914774, 41.773140860891743 ], [ -87.605587164226392, 41.765868563249143 ], [ -87.615449799983423, 41.772969770533749 ], [ -87.615759541549778, 41.785698913757336 ], [ -87.577144568913354, 41.786146410134393 ] ] ] } },
{ "type": "Feature", "properties": { ":id": "row-tejd.2k2v.2zy7", ":version": "rv-h9k2.hqft~zcnm", ":created_at": "2025-04-22T23:06:36.944Z", ":updated_at": "2025-04-22T23:06:36.944Z", "area_numbe": "43", "community": "SOUTH SHORE", "area_num_1": "43", "shape_area": "81812716.3958", "shape_len": "44249.6461173", "crime_count": 46876, "risk_level": 2, "risk_name": "Moderate Risk" }, "geometry": { "type": "Polygon", "coordinates": [ [ [ -87.540596759128334, 41.757269283254338 ], [ -87.552287281943109, 41.751918637779504 ], [ -87.585824400800689, 41.751505558525352 ], [ -87.595630371388651, 41.758695854376214 ], [ -87.592281804034869, 41.766011570053614 ], [ -87.592098569003113, 41.773275462170879 ], [ -87.566448186421894, 41.773791081996691 ], [ -87.563580842816492, 41.772025785149992 ], [ -87.562337662940493, 41.769000925678888 ], [ -87.55953563167698, 41.769179126491352 ], [ -87.560513677296484, 41.765389806880997 ], [ -87.556078569662475, 41.761821121277727 ], [ -87.548708866387187, 41.758726206339304 ], [ -87.54385300613626, 41.760111659382169 ], [ -87.546476795489994, 41.760651843247956 ], [ -87.544365247017708, 41.760666149934082 ], [ -87.543041011270361, 41.759600852367285 ], [ -87.540596759128334, 41.757269283254338 ] ] ] } },
{ "type": "Feature", "properties": { ":id": "row-yja4_wvm6~rnwz", ":version": "rv-vw4q_cwck_me3e", ":created_at": "2025-04-22T23:06:36.944Z", ":updated_at": "2025-04-22T23:06:36.944Z", "area_numbe": "44", "community": "CHATHAM", "area_num_1": "44", "shape_area": "82320670.3112", "shape_len": "42006.9450094", "crime_count": 32093, "risk_level": 0, "risk_name": "Very High Risk" }, "geometry": { "type": "Polygon", "coordinates": [ [ [ -87.595347408997299, 41.736782372394735 ], [ -87.600393591922582, 41.736710254156797 ], [ -87.604491693382769, 41.72254809361332 ], [ -87.617346337945648, 41.729052283608262 ], [ -87.625671405749841, 41.729019300802179 ], [ -87.632720518726117, 41.735972319665123 ], [ -87.634107819635474, 41.743498092382168 ], [ -87.639190142173774, 41.743434069869387 ], [ -87.639452265689599, 41.750487176280956 ], [ -87.597208020658599, 41.751369384460766 ], [ -87.597850319557537, 41.74169258615256 ], [ -87.595347408997299, 41.736782372394735 ] ] ] } },
{ "type": "Feature", "properties": { ":id": "row-2mfc-kcua.522e", ":version": "rv-5kiq-2nir-jx3a", ":created_at": "2025-04-22T23:06:36.944Z", ":updated_at": "2025-04-22T23:06:36.944Z", "area_numbe": "45", "community": "AVALON PARK", "area_num_1": "45", "shape_area": "34852737.7366", "shape_len": "27630.822534", "crime_count": 6275, "risk_level": 2, "risk_name": "Moderate Risk" }, "geometry": { "type": "Polygon", "coordinates": [ [ [ -87.593061934719785, 41.756881788630317 ], [ -87.584456756062806, 41.750689591206893 ], [ -87.565700625029692, 41.737197718754167 ], [ -87.595347408997299, 41.736782372394735 ], [ -87.597881807702009, 41.742144226038114 ], [ -87.597208020658599, 41.751369384460766 ], [ -87.595490623944102, 41.751386642624261 ], [ -87.595797936648651, 41.756858239028432 ], [ -87.593061934719785, 41.756881788630317 ] ] ] } },
{ "type": "Feature", "properties": { ":id": "row-h7vw-69e3.iaya", ":version": "rv-hefr.h8ha_gfki", ":created_at": "2025-04-22T23:06:36.944Z", ":updated_at": "2025-04-22T23:06:36.944Z", "area_numbe": "46", "community": "SOUTH CHICAGO", "area_num_1": "46", "shape_area": "93272185.0092", "shape_len": "52435.9794313", "crime_count": 22005, "risk_level": 0, "risk_name": "Very High Risk" }, "geometry": { "type": "Polygon", "coordinates": [ [ [ -87.543978117113696, 41.755152222720831 ], [ -87.54318778206455, 41.751989241008445 ], [ -87.530948298138526, 41.748025954869071 ], [ -87.529879007692969, 41.741478817019996 ], [ -87.524462287356329, 41.741468528417464 ], [ -87.539855201543361, 41.741013006060989 ], [ -87.529856637858146, 41.740607317204585 ], [ -87.528958096781508, 41.733747600154288 ], [ -87.541398936400554, 41.727585766823644 ], [ -87.543144299350672, 41.722861752052104 ], [ -87.54567696316127, 41.722820577410126 ], [ -87.585655298342971, 41.75150194251394 ], [ -87.552287281943109, 41.751918637779504 ], [ -87.543978117113696, 41.755152222720831 ] ] ] } },
{ "type": "Feature", "properties": { ":id": "row-9rei-jvyw_q93k", ":version": "rv-ttx8_gkkj~8xm3", ":created_at": "2025-04-22T23:06:36.944Z", ":updated_at": "2025-04-22T23:06:36.944Z", "area_numbe": "47", "community": "BURNSIDE", "area_num_1": "47", "shape_area": "16995983.2737", "shape_len": "18137.9442529", "crime_count": 2045, "risk_level": 2, "risk_name": "Moderate Risk" }, "geometry": { "type": "Polygon", "coordinates": [ [ [ -87.595347408997299, 41.736782372394735 ], [ -87.586703789677344, 41.722321554678793 ], [ -87.604481612438647, 41.722044323975048 ], [ -87.600393591922582, 41.736710254156797 ], [ -87.595347408997299, 41.736782372394735 ] ] ] } },
{ "type": "Feature", "properties": { ":id": "row-j3jg-xjzf-tr68", ":version": "rv-iyiv~nbng.675v", ":created_at": "2025-04-22T23:06:36.944Z", ":updated_at": "2025-04-22T23:06:36.944Z", "area_numbe": "48", "community": "CALUMET HEIGHTS", "area_num_1": "48", "shape_area": "48826241.5643", "shape_len": "32925.3658706", "crime_count": 8411, "risk_level": 2, "risk_name": "Moderate Risk" }, "geometry": { "type": "Polygon", "coordinates": [ [ [ -87.54567696316127, 41.722820577410126 ], [ -87.587374316006603, 41.723256356678093 ], [ -87.595347408997299, 41.736782372394735 ], [ -87.565700625029692, 41.737197718754167 ], [ -87.54567696316127, 41.722820577410126 ] ] ] } },
{ "type": "Feature", "properties": { ":id": "row-53ay~ayjw.vv8f", ":version": "rv-2vnn_xcc2-fs6j", ":created_at": "2025-04-22T23:06:36.944Z", ":updated_at": "2025-04-22T23:06:36.944Z", "area_numbe": "49", "community": "ROSELAND", "area_num_1": "49", "shape_area": "134313706.73", "shape_len": "56632.7954292", "crime_count": 33237, "risk_level": 0, "risk_name": "Very High Risk" }, "geometry": { "type": "Polygon", "coordinates": [ [ [ -87.617346337945648, 41.729052283608262 ], [ -87.603182240480038, 41.722048348783012 ], [ -87.611395467381882, 41.685442349004859 ], [ -87.642152046513985, 41.685082119670845 ], [ -87.642833969294969, 41.706917087516139 ], [ -87.633132513435754, 41.707042659962397 ], [ -87.633962984394088, 41.739474264597362 ], [ -87.632720518726117, 41.735972319665123 ], [ -87.625671405749841, 41.729019300802179 ], [ -87.617346337945648, 41.729052283608262 ] ] ] } },
{ "type": "Feature", "properties": { ":id": "row-7pkm.mppb.235j", ":version": "rv-c733.krbb.eigt", ":created_at": "2025-04-22T23:06:36.944Z", ":updated_at": "2025-04-22T23:06:36.944Z", "area_numbe": "50", "community": "PULLMAN", "area_num_1": "50", "shape_area": "59001555.602", "shape_len": "35572.0695077", "crime_count": 5471, "risk_level": 2, "risk_name": "Moderate Risk" }, "geometry": { "type": "Polygon", "coordinates": [ [ [ -87.601570128059592, 41.686209354986545 ], [ -87.611438513803449, 41.685724745945791 ], [ -87.603182240480038, 41.722048348783012 ], [ -87.586703789677344, 41.722321554678793 ], [ -87.584963080882517, 41.720684693552698 ], [ -87.585086454929325, 41.709012773133047 ], [ -87.594365527822191, 41.698975843512898 ], [ -87.601570128059592, 41.686209354986545 ] ] ] } },
{ "type": "Feature", "properties": { ":id": "row-vu5g_2cj4.yxpi", ":version": "rv-a6zi.9mcw-dv2k", ":created_at": "2025-04-22T23:06:36.944Z", ":updated_at": "2025-04-22T23:06:36.944Z", "area_numbe": "51", "community": "SOUTH DEERING", "area_num_1": "51", "shape_area": "303797059.66", "shape_len": "80389.8718002", "crime_count": 10324, "risk_level": 2, "risk_name": "Moderate Risk" }, "geometry": { "type": "Polygon", "coordinates": [ [ [ -87.587374316006603, 41.723256356678093 ], [ -87.543144299350672, 41.722861752052104 ], [ -87.542180356221323, 41.715643063415079 ], [ -87.54272558224919, 41.710753866569114 ], [ -87.545855968687064, 41.707332642077802 ], [ -87.545904806031729, 41.702767271634926 ], [ -87.543795734776793, 41.702762718971059 ], [ -87.545204877565752, 41.700309895645418 ], [ -87.544919119878685, 41.673183683554377 ], [ -87.546452490931244, 41.668136038545406 ], [ -87.544710340271749, 41.659222227322978 ], [ -87.552020039308175, 41.663463708493232 ], [ -87.55659704818693, 41.669968625442209 ], [ -87.559259479884133, 41.668651720207755 ], [ -87.559286173609806, 41.659189334966811 ], [ -87.588999682136659, 41.660391635733525 ], [ -87.601025875632743, 41.67434279468366 ], [ -87.601935803065146, 41.684741588407711 ], [ -87.594365527822191, 41.698975843512898 ], [ -87.585086454929325, 41.709012773133047 ], [ -87.584963080882517, 41.720684693552698 ], [ -87.587374316006603, 41.723256356678093 ] ] ] } },
{ "type": "Feature", "properties": { ":id": "row-6eyq_fm37-c8bw", ":version": "rv-jxam-ti9e-qt2y", ":created_at": "2025-04-22T23:06:36.944Z", ":updated_at": "2025-04-22T23:06:36.944Z", "area_numbe": "52", "community": "EAST SIDE", "area_num_1": "52", "shape_area": "83241728.0493", "shape_len": "52274.1928493", "crime_count": 6925, "risk_level": 2, "risk_name": "Moderate Risk" }, "geometry": { "type": "Polygon", "coordinates": [ [ [ -87.524620149763436, 41.691800770118441 ], [ -87.530364164450418, 41.691826316054275 ], [ -87.530413740536275, 41.684566226137143 ], [ -87.540129671720138, 41.684506771265596 ], [ -87.540117092161651, 41.682775794916736 ], [ -87.545078494245942, 41.682770385881184 ], [ -87.545204877565752, 41.700309895645418 ], [ -87.543795734776793, 41.702762718971059 ], [ -87.545904806031729, 41.702767271634926 ], [ -87.545855968687064, 41.707332642077802 ], [ -87.54267351452043, 41.71095008371659 ], [ -87.542251776078672, 41.726579199853745 ], [ -87.529251009959509, 41.733013567944688 ], [ -87.524688412171002, 41.731093499044164 ], [ -87.525608632512842, 41.719435507691571 ], [ -87.524468430690249, 41.717403337888271 ], [ -87.528704254315855, 41.71542292207409 ], [ -87.526486077231809, 41.712354981192121 ], [ -87.525167015893501, 41.713327141994142 ], [ -87.528408006769766, 41.710803100159652 ], [ -87.525750403501092, 41.710411088730424 ], [ -87.524139601617591, 41.709360156198414 ], [ -87.525529600572568, 41.70993702105887 ], [ -87.526220206433294, 41.709539447310348 ], [ -87.524535407865116, 41.708482291167051 ], [ -87.524620149763436, 41.691800770118441 ] ] ] } },
{ "type": "Feature", "properties": { ":id": "row-5a5j.sugm.y384", ":version": "rv-2myg.9tmf.bajs", ":created_at": "2025-04-22T23:06:36.944Z", ":updated_at": "2025-04-22T23:06:36.944Z", "area_numbe": "53", "community": "WEST PULLMAN", "area_num_1": "53", "shape_area": "99365198.0822", "shape_len": "50023.8430008", "crime_count": 20292, "risk_level": 0, "risk_name": "Very High Risk" }, "geometry": { "type": "Polygon", "coordinates": [ [ [ -87.618281278170059, 41.659106860235156 ], [ -87.623286148529601, 41.662396857228579 ], [ -87.631075393312116, 41.657832737158031 ], [ -87.646988464844924, 41.65763048870722 ], [ -87.647216786670469, 41.663159408389106 ], [ -87.641420933844699, 41.663245112504711 ], [ -87.641665031227745, 41.670539538941604 ], [ -87.661150043230137, 41.670335131513134 ], [ -87.661598765160321, 41.684820342048305 ], [ -87.612279162681531, 41.685433883167434 ], [ -87.618281278170059, 41.659106860235156 ] ] ] } },
{ "type": "Feature", "properties": { ":id": "row-ndyx-exjg_msub", ":version": "rv-ryyj-vv9b_kjbk", ":created_at": "2025-04-22T23:06:36.944Z", ":updated_at": "2025-04-22T23:06:36.944Z", "area_numbe": "54", "community": "RIVERDALE", "area_num_1": "54", "shape_area": "98389497.4143", "shape_len": "46455.4408571", "crime_count": 6751, "risk_level": 0, "risk_name": "Very High Risk" }, "geometry": { "type": "Polygon", "coordinates": [ [ [ -87.601570128059592, 41.686209354986545 ], [ -87.60090843100123, 41.674128123216256 ], [ -87.580559313993916, 41.650519917907282 ], [ -87.578377070191422, 41.644694638509506 ], [ -87.617215713640192, 41.64458401911299 ], [ -87.617229979331427, 41.650275603732851 ], [ -87.620316401212605, 41.650886482885596 ], [ -87.612279162681531, 41.685433883167434 ], [ -87.601570128059592, 41.686209354986545 ] ] ] } },
{ "type": "Feature", "properties": { ":id": "row-c65k~kxx3.gdea", ":version": "rv-zz6p~7ivm~2k2n", ":created_at": "2025-04-22T23:06:36.944Z", ":updated_at": "2025-04-22T23:06:36.944Z", "area_numbe": "55", "community": "HEGEWISCH", "area_num_1": "55", "shape_area": "145965741.437", "shape_len": "73692.3821322", "crime_count": 3884, "risk_level": 2, "risk_name": "Moderate Risk" }, "geometry": { "type": "Polygon", "coordinates": [ [ [ -87.524620149763436, 41.691800770118441 ], [ -87.525165870548818, 41.644543121506054 ], [ -87.578377070191422, 41.644694638509506 ], [ -87.5797920944743, 41.649405103742239 ], [ -87.588999682136659, 41.660391635733525 ], [ -87.559286173609806, 41.659189334966811 ], [ -87.559259479884133, 41.668651720207755 ], [ -87.55659704818693, 41.669968625442209 ], [ -87.552020039308175, 41.663463708493232 ], [ -87.544710340271749, 41.659222227322978 ], [ -87.546452490931244, 41.668136038545406 ], [ -87.544919119878685, 41.673183683554377 ], [ -87.545078494245942, 41.682770385881184 ], [ -87.540117092161651, 41.682775794916736 ], [ -87.540129671720138, 41.684506771265596 ], [ -87.530413740536275, 41.684566226137143 ], [ -87.530364164450418, 41.691826316054275 ], [ -87.524620149763436, 41.691800770118441 ] ] ] } },
{ "type": "Feature", "properties": { ":id": "row-w7ev_4usb-r6ah", ":version": "rv-drnx.97hj.kski", ":created_at": "2025-04-22T23:06:36.944Z", ":updated_at": "2025-04-22T23:06:36.944Z", "area_numbe": "56", "community": "GARFIELD RIDGE", "area_num_1": "56", "shape_area": "117890778.429", "shape_len": "60080.4479704", "crime_count": 11170, "risk_level": 2, "risk_name": "Moderate Risk" }, "geometry": { "type": "Polygon", "coordinates": [ [ [ -87.738649251014195, 41.822117600250941 ], [ -87.73762325643321, 41.785783191923649 ], [ -87.801216158849371, 41.784688432488011 ], [ -87.801626059786614, 41.797995167280035 ], [ -87.797187007872736, 41.799401976362546 ], [ -87.752736120324627, 41.800187142657485 ], [ -87.753077040360822, 41.8133103362862 ], [ -87.744654919320297, 41.815963219292669 ], [ -87.74476347919753, 41.822031843072196 ], [ -87.738649251014195, 41.822117600250941 ] ] ] } },
{ "type": "Feature", "properties": { ":id": "row-uqbf_j4ih-pw7n", ":version": "rv-p4px.gjgx_uts9", ":created_at": "2025-04-22T23:06:36.944Z", ":updated_at": "2025-04-22T23:06:36.944Z", "area_numbe": "57", "community": "ARCHER HEIGHTS", "area_num_1": "57", "shape_area": "55922505.7212", "shape_len": "31880.0210295", "crime_count": 5368, "risk_level": 2, "risk_name": "Moderate Risk" }, "geometry": { "type": "Polygon", "coordinates": [ [ [ -87.714369347366983, 41.826040562838926 ], [ -87.714369105862218, 41.804585396845802 ], [ -87.728207886007297, 41.79831029778461 ], [ -87.728168186707649, 41.79683084332062 ], [ -87.735512486605771, 41.796755311640084 ], [ -87.735412052924005, 41.795464385225017 ], [ -87.737905108094509, 41.795290379422198 ], [ -87.738556581432221, 41.818706144260389 ], [ -87.714369347366983, 41.826040562838926 ] ] ] } },
{ "type": "Feature", "properties": { ":id": "row-y8mx-i4je-8tyz", ":version": "rv-tupb-hs69_ze94", ":created_at": "2025-04-22T23:06:36.944Z", ":updated_at": "2025-04-22T23:06:36.944Z", "area_numbe": "58", "community": "BRIGHTON PARK", "area_num_1": "58", "shape_area": "75892790.3114", "shape_len": "36537.1343061", "crime_count": 12085, "risk_level": 2, "risk_name": "Moderate Risk" }, "geometry": { "type": "Polygon", "coordinates": [ [ [ -87.684239727117244, 41.822999792424476 ], [ -87.68436794531037, 41.804554647174186 ], [ -87.713776312351044, 41.803928037996556 ], [ -87.714369347366983, 41.826040562838926 ], [ -87.68739948177965, 41.834800982012965 ], [ -87.687357510231095, 41.826622436086019 ], [ -87.686080305410584, 41.822955608773 ], [ -87.684239727117244, 41.822999792424476 ] ] ] } },
{ "type": "Feature", "properties": { ":id": "row-xti3_4mng_d7ba", ":version": "rv-d9e9~wqh6_7etq", ":created_at": "2025-04-22T23:06:36.944Z", ":updated_at": "2025-04-22T23:06:36.944Z", "area_numbe": "59", "community": "MCKINLEY PARK", "area_num_1": "59", "shape_area": "39431799.6479", "shape_len": "26014.0968371", "crime_count": 5055, "risk_level": 2, "risk_name": "Moderate Risk" }, "geometry": { "type": "Polygon", "coordinates": [ [ [ -87.656112321310431, 41.823313665521695 ], [ -87.686080305410584, 41.822955608773 ], [ -87.68745140832732, 41.834692495077284 ], [ -87.664285117881619, 41.839065031441905 ], [ -87.657429705313177, 41.831197337410259 ], [ -87.656112321310431, 41.823313665521695 ] ] ] } },
{ "type": "Feature", "properties": { ":id": "row-mn5j.ggq8-93ag", ":version": "rv-63by.whjs-9w9z", ":created_at": "2025-04-22T23:06:36.944Z", ":updated_at": "2025-04-22T23:06:36.944Z", "area_numbe": "60", "community": "BRIDGEPORT", "area_num_1": "60", "shape_area": "58291519.2767", "shape_len": "32732.7183268", "crime_count": 8632, "risk_level": 2, "risk_name": "Moderate Risk" }, "geometry": { "type": "Polygon", "coordinates": [ [ [ -87.633963923073921, 41.823613287045674 ], [ -87.656112321310431, 41.823313665521695 ], [ -87.657429705313177, 41.831197337410259 ], [ -87.664537556984087, 41.839555195845094 ], [ -87.663777676229927, 41.84429156558668 ], [ -87.658604633881367, 41.847264845351823 ], [ -87.642248233538595, 41.848925553310465 ], [ -87.641600072359068, 41.84630055170129 ], [ -87.638357832000636, 41.846182556010298 ], [ -87.638291489565773, 41.843616780689182 ], [ -87.636512039002326, 41.843642687757836 ], [ -87.636403841950539, 41.827230909404506 ], [ -87.633963923073921, 41.823613287045674 ] ] ] } },
{ "type": "Feature", "properties": { ":id": "row-jvfc_e75e-2dtc", ":version": "rv-63fp-7hji-77xx", ":created_at": "2025-04-22T23:06:36.944Z", ":updated_at": "2025-04-22T23:06:36.944Z", "area_numbe": "61", "community": "NEW CITY", "area_num_1": "61", "shape_area": "134636963.254", "shape_len": "48133.595961", "crime_count": 21224, "risk_level": 0, "risk_name": "Very High Risk" }, "geometry": { "type": "Polygon", "coordinates": [ [ [ -87.635457499123632, 41.794476047781181 ], [ -87.678815003959187, 41.793867854001363 ], [ -87.679406510950301, 41.804852516387349 ], [ -87.68437225764859, 41.804722405623565 ], [ -87.684239727117244, 41.822999792424476 ], [ -87.636117879671048, 41.823585779024796 ], [ -87.635457499123632, 41.794476047781181 ] ] ] } },
{ "type": "Feature", "properties": { ":id": "row-t869~2btp_ena8", ":version": "rv-p625-cdvq_sk3d", ":created_at": "2025-04-22T23:06:36.944Z", ":updated_at": "2025-04-22T23:06:36.944Z", "area_numbe": "62", "community": "WEST ELSDON", "area_num_1": "62", "shape_area": "32711091.4259", "shape_len": "26229.6956007", "crime_count": 4888, "risk_level": 2, "risk_name": "Moderate Risk" }, "geometry": { "type": "Polygon", "coordinates": [ [ [ -87.713789461686105, 41.806022753406261 ], [ -87.713374872741241, 41.786088576000083 ], [ -87.73762325643321, 41.785783191923649 ], [ -87.737905108094509, 41.795290379422198 ], [ -87.735412052924005, 41.795464385225017 ], [ -87.735512486605771, 41.796755311640084 ], [ -87.728168186707649, 41.79683084332062 ], [ -87.728207886007297, 41.79831029778461 ], [ -87.715227552310409, 41.803755070695388 ], [ -87.713789461686105, 41.806022753406261 ] ] ] } },
{ "type": "Feature", "properties": { ":id": "row-shd6_rf64_vmay", ":version": "rv-hpxq_gsam.svj7", ":created_at": "2025-04-22T23:06:36.944Z", ":updated_at": "2025-04-22T23:06:36.944Z", "area_numbe": "63", "community": "GAGE PARK", "area_num_1": "63", "shape_area": "61284896.1132", "shape_len": "32294.1959107", "crime_count": 11846, "risk_level": 2, "risk_name": "Moderate Risk" }, "geometry": { "type": "Polygon", "coordinates": [ [ [ -87.679406510950301, 41.804852516387349 ], [ -87.6796718667824, 41.786557245369842 ], [ -87.713374872741241, 41.786088576000083 ], [ -87.713776312351044, 41.803928037996556 ], [ -87.679406510950301, 41.804852516387349 ] ] ] } },
{ "type": "Feature", "properties": { ":id": "row-8id4.ej6c.m7h5", ":version": "rv-hxub~ms6s_5ev5", ":created_at": "2025-04-22T23:06:36.944Z", ":updated_at": "2025-04-22T23:06:36.944Z", "area_numbe": "64", "community": "CLEARING", "area_num_1": "64", "shape_area": "71145192.3827", "shape_len": "45363.2861749", "crime_count": 5968, "risk_level": 2, "risk_name": "Moderate Risk" }, "geometry": { "type": "Polygon", "coordinates": [ [ [ -87.73762325643321, 41.785783191923649 ], [ -87.737176028430881, 41.771202109731036 ], [ -87.742054538543286, 41.771128720250715 ], [ -87.742165372264111, 41.774780220155904 ], [ -87.800805668702594, 41.773697478683715 ], [ -87.801216158849371, 41.784688432488011 ], [ -87.73762325643321, 41.785783191923649 ] ] ] } },
{ "type": "Feature", "properties": { ":id": "row-vxnr-a75i.g3jt", ":version": "rv-3ufq~3igh-wjz2", ":created_at": "2025-04-22T23:06:36.944Z", ":updated_at": "2025-04-22T23:06:36.944Z", "area_numbe": "65", "community": "WEST LAWN", "area_num_1": "65", "shape_area": "82315301.6831", "shape_len": "41934.4901309", "crime_count": 8947, "risk_level": 2, "risk_name": "Moderate Risk" }, "geometry": { "type": "Polygon", "coordinates": [ [ [ -87.712547755618857, 41.757337333037327 ], [ -87.722286747431198, 41.761469633818301 ], [ -87.722036285174809, 41.753374092397451 ], [ -87.741495634106769, 41.753291549169745 ], [ -87.742054538543286, 41.771128720250715 ], [ -87.737176028430881, 41.771202109731036 ], [ -87.73762325643321, 41.785783191923649 ], [ -87.712896728051462, 41.786096621693552 ], [ -87.712547755618857, 41.757337333037327 ] ] ] } },
{ "type": "Feature", "properties": { ":id": "row-wmmi_ewch-39bg", ":version": "rv-n4eb~ykee_55z5", ":created_at": "2025-04-22T23:06:36.944Z", ":updated_at": "2025-04-22T23:06:36.944Z", "area_numbe": "66", "community": "CHICAGO LAWN", "area_num_1": "66", "shape_area": "98279465.1151", "shape_len": "40073.0998382", "crime_count": 28530, "risk_level": 0, "risk_name": "Very High Risk" }, "geometry": { "type": "Polygon", "coordinates": [ [ [ -87.678151317002587, 41.757659521100578 ], [ -87.712547755618857, 41.757337333037327 ], [ -87.712896728051462, 41.786096621693552 ], [ -87.679123325198447, 41.786564072880324 ], [ -87.678151317002587, 41.757659521100578 ] ] ] } },
{ "type": "Feature", "properties": { ":id": "row-78ek-7mqu~qisa", ":version": "rv-k67i-dw52_wv2z", ":created_at": "2025-04-22T23:06:36.944Z", ":updated_at": "2025-04-22T23:06:36.944Z", "area_numbe": "67", "community": "WEST ENGLEWOOD", "area_num_1": "67", "shape_area": "87947691.9478", "shape_len": "40195.2033069", "crime_count": 28207, "risk_level": 0, "risk_name": "Very High Risk" }, "geometry": { "type": "Polygon", "coordinates": [ [ [ -87.65487424668116, 41.794171879505768 ], [ -87.653930851181258, 41.75792817731827 ], [ -87.678151317002587, 41.757659521100578 ], [ -87.679372321926778, 41.793494483550958 ], [ -87.65487424668116, 41.794171879505768 ] ] ] } },
{ "type": "Feature", "properties": { ":id": "row-csdw_ypdc.ke5s", ":version": "rv-c3mz~m66n-msds", ":created_at": "2025-04-22T23:06:36.944Z", ":updated_at": "2025-04-22T23:06:36.944Z", "area_numbe": "68", "community": "ENGLEWOOD", "area_num_1": "68", "shape_area": "85652323.0826", "shape_len": "42316.8442973", "crime_count": 29416, "risk_level": 0, "risk_name": "Very High Risk" }, "geometry": { "type": "Polygon", "coordinates": [ [ [ -87.62855540676513, 41.794599284530136 ], [ -87.6285426889131, 41.780004791697536 ], [ -87.630149700939128, 41.779987029777338 ], [ -87.631358910263856, 41.769057363583038 ], [ -87.633546286752136, 41.769014673704007 ], [ -87.634711767396951, 41.767171100188492 ], [ -87.635701709069565, 41.758057562336319 ], [ -87.639273525513929, 41.757979072729299 ], [ -87.639334853859609, 41.756157037529647 ], [ -87.644083524345021, 41.756077206663321 ], [ -87.644235225147739, 41.758143752989589 ], [ -87.653932813365145, 41.757999458998533 ], [ -87.65487424668116, 41.794171879505768 ], [ -87.62855540676513, 41.794599284530136 ] ] ] } },
{ "type": "Feature", "properties": { ":id": "row-y2is.495e_bx3i", ":version": "rv-9w7x_nbfh.346r", ":created_at": "2025-04-22T23:06:36.944Z", ":updated_at": "2025-04-22T23:06:36.944Z", "area_numbe": "69", "community": "GREATER GRAND CROSSING", "area_num_1": "69", "shape_area": "98853167.7093", "shape_len": "54645.3302996", "crime_count": 34840, "risk_level": 0, "risk_name": "Very High Risk" }, "geometry": { "type": "Polygon", "coordinates": [ [ [ -87.615622330437745, 41.780239137635192 ], [ -87.615449799983423, 41.772969770533749 ], [ -87.605587164226392, 41.765868563249143 ], [ -87.605768753914774, 41.773140860891743 ], [ -87.592098569003113, 41.773275462170879 ], [ -87.592281804034869, 41.766011570053614 ], [ -87.595630371388651, 41.758695854376214 ], [ -87.593061934719785, 41.756881788630317 ], [ -87.595797936648651, 41.756858239028432 ], [ -87.595490623944102, 41.751386642624261 ], [ -87.639758602235062, 41.750704657452985 ], [ -87.639273525513929, 41.757979072729299 ], [ -87.635701709069565, 41.758057562336319 ], [ -87.635746921031853, 41.759880303785643 ], [ -87.634530479686973, 41.759900210152658 ], [ -87.634711767396951, 41.767171100188492 ], [ -87.633546286752136, 41.769014673704007 ], [ -87.631358910263856, 41.769057363583038 ], [ -87.631038811512283, 41.772694872405353 ], [ -87.629955493883742, 41.772708995718062 ], [ -87.628969962462733, 41.783147442369923 ], [ -87.625404065848713, 41.783209976737233 ], [ -87.625374849104503, 41.78005828551585 ], [ -87.615622330437745, 41.780239137635192 ] ] ] } },
{ "type": "Feature", "properties": { ":id": "row-u2fm-qe4s.kqka", ":version": "rv-wk6q-ewdp-iihk", ":created_at": "2025-04-22T23:06:36.944Z", ":updated_at": "2025-04-22T23:06:36.944Z", "area_numbe": "70", "community": "ASHBURN", "area_num_1": "70", "shape_area": "135460337.208", "shape_len": "54818.1546317", "crime_count": 11819, "risk_level": 2, "risk_name": "Moderate Risk" }, "geometry": { "type": "Polygon", "coordinates": [ [ [ -87.712547755618857, 41.757337333037327 ], [ -87.678587983821572, 41.757653434420845 ], [ -87.677890202320398, 41.742542907699516 ], [ -87.672785022525574, 41.735654381283354 ], [ -87.741067283365069, 41.734523556768195 ], [ -87.741495634106769, 41.753291549169745 ], [ -87.722036285174809, 41.753374092397451 ], [ -87.722286747431198, 41.761469633818301 ], [ -87.712547755618857, 41.757337333037327 ] ] ] } },
{ "type": "Feature", "properties": { ":id": "row-dr7z.m3nh_zud7", ":version": "rv-zhgk.ef6b-zfei", ":created_at": "2025-04-22T23:06:36.944Z", ":updated_at": "2025-04-22T23:06:36.944Z", "area_numbe": "71", "community": "AUBURN GRESHAM", "area_num_1": "71", "shape_area": "105065353.602", "shape_len": "46757.7217161", "crime_count": 37036, "risk_level": 0, "risk_name": "Very High Risk" }, "geometry": { "type": "Polygon", "coordinates": [ [ [ -87.639900057792573, 41.7561457824294 ], [ -87.639190142173774, 41.743434069869387 ], [ -87.634107819635474, 41.743498092382168 ], [ -87.633733835149869, 41.728852724508151 ], [ -87.644615425808212, 41.728700618010116 ], [ -87.645183111645835, 41.729835376563464 ], [ -87.64795136679183, 41.728700338255308 ], [ -87.64651275538084, 41.732526589942367 ], [ -87.66538724145704, 41.732085579622719 ], [ -87.665330970186503, 41.730237221857088 ], [ -87.668116631889433, 41.730200613158949 ], [ -87.677570792333796, 41.741530739562066 ], [ -87.678587983821572, 41.757653434420845 ], [ -87.644235225147739, 41.758143752989589 ], [ -87.644183686411779, 41.756088416144401 ], [ -87.639900057792573, 41.7561457824294 ] ] ] } },
{ "type": "Feature", "properties": { ":id": "row-7bqu-epdy.gkpf", ":version": "rv-7qzg_tnsb.z8jx", ":created_at": "2025-04-22T23:06:36.944Z", ":updated_at": "2025-04-22T23:06:36.944Z", "area_numbe": "72", "community": "BEVERLY", "area_num_1": "72", "shape_area": "88779363.9384", "shape_len": "44591.4851009", "crime_count": 5295, "risk_level": 3, "risk_name": "Low Risk" }, "geometry": { "type": "Polygon", "coordinates": [ [ [ -87.673082555942187, 41.735656724178803 ], [ -87.667247023394722, 41.728850640575537 ], [ -87.656019245633786, 41.706785498304953 ], [ -87.658741672269798, 41.699443589598189 ], [ -87.696148147532668, 41.698940574787059 ], [ -87.696459613758222, 41.70714491233857 ], [ -87.691519391581195, 41.707203131937284 ], [ -87.691728816112004, 41.713565678289953 ], [ -87.68184169149319, 41.71366175592933 ], [ -87.682514047187112, 41.735527283787945 ], [ -87.673082555942187, 41.735656724178803 ] ] ] } },
{ "type": "Feature", "properties": { ":id": "row-3uma_gs6v_expc", ":version": "rv-cj4p_x3rj.brzz", ":created_at": "2025-04-22T23:06:36.944Z", ":updated_at": "2025-04-22T23:06:36.944Z", "area_numbe": "73", "community": "WASHINGTON HEIGHTS", "area_num_1": "73", "shape_area": "79635752.8769", "shape_len": "42222.598163", "crime_count": 16204, "risk_level": 2, "risk_name": "Moderate Risk" }, "geometry": { "type": "Polygon", "coordinates": [ [ [ -87.633733835149869, 41.728852724508151 ], [ -87.633132513435754, 41.707042659962397 ], [ -87.642833969294969, 41.706917087516139 ], [ -87.642608034341521, 41.699640945349614 ], [ -87.658741672269798, 41.699443589598189 ], [ -87.656019245633786, 41.706785498304953 ], [ -87.668116631889433, 41.730200613158949 ], [ -87.665330970186503, 41.730237221857088 ], [ -87.66538724145704, 41.732085579622719 ], [ -87.64651275538084, 41.732526589942367 ], [ -87.64795136679183, 41.728700338255308 ], [ -87.645183111645835, 41.729835376563464 ], [ -87.644615425808212, 41.728700618010116 ], [ -87.633733835149869, 41.728852724508151 ] ] ] } },
{ "type": "Feature", "properties": { ":id": "row-rn7j_sh22-jf8y", ":version": "rv-a49v.s4vy~pudv", ":created_at": "2025-04-22T23:06:36.944Z", ":updated_at": "2025-04-22T23:06:36.944Z", "area_numbe": "74", "community": "MOUNT GREENWOOD", "area_num_1": "74", "shape_area": "75584290.0209", "shape_len": "48665.1305392", "crime_count": 2743, "risk_level": 3, "risk_name": "Low Risk" }, "geometry": { "type": "Polygon", "coordinates": [ [ [ -87.696459613758222, 41.70714491233857 ], [ -87.69576593651081, 41.688075575872894 ], [ -87.699473347028459, 41.687933345468565 ], [ -87.700552741053173, 41.684262784586011 ], [ -87.705417064633366, 41.684187292019928 ], [ -87.705284959792309, 41.680578859752693 ], [ -87.711356712222866, 41.68044105746214 ], [ -87.711507303800005, 41.684093588307434 ], [ -87.7394497123733, 41.683632010319059 ], [ -87.739739008823648, 41.690859909875407 ], [ -87.720316967229166, 41.691284865457007 ], [ -87.721125107092647, 41.713169910137886 ], [ -87.712577623903925, 41.713297469504852 ], [ -87.711123541136971, 41.706073722584364 ], [ -87.696459613758222, 41.70714491233857 ] ] ] } },
{ "type": "Feature", "properties": { ":id": "row-fiv3~fa4r~zk9e", ":version": "rv-vip3.c98b.9m2d", ":created_at": "2025-04-22T23:06:36.944Z", ":updated_at": "2025-04-22T23:06:36.944Z", "area_numbe": "75", "community": "MORGAN PARK", "area_num_1": "75", "shape_area": "91877340.6988", "shape_len": "46396.419362", "crime_count": 10538, "risk_level": 2, "risk_name": "Moderate Risk" }, "geometry": { "type": "Polygon", "coordinates": [ [ [ -87.642152046513985, 41.685082119670845 ], [ -87.661598765160321, 41.684820342048305 ], [ -87.661365058119273, 41.677544267486745 ], [ -87.66677140861276, 41.677437664560223 ], [ -87.667315781610085, 41.67596305545473 ], [ -87.667950692721234, 41.677417146321162 ], [ -87.686205162291458, 41.677208258907044 ], [ -87.685721957380693, 41.684475295714584 ], [ -87.695625415558467, 41.684333220394471 ], [ -87.695916774538446, 41.691624850880594 ], [ -87.691008903220407, 41.692283434760938 ], [ -87.691237969080959, 41.698981849931933 ], [ -87.642608034341521, 41.699640945349614 ], [ -87.642152046513985, 41.685082119670845 ] ] ] } },
{ "type": "Feature", "properties": { ":id": "row-wewr.7jx4_gctv", ":version": "rv-awj9_vhn6~tvpk", ":created_at": "2025-04-22T23:06:36.944Z", ":updated_at": "2025-04-22T23:06:36.944Z", "area_numbe": "76", "community": "OHARE", "area_num_1": "76", "shape_area": "371835607.687", "shape_len": "173625.98466", "crime_count": 8422, "risk_level": 4, "risk_name": "Very Low Risk" }, "geometry": { "type": "MultiPolygon", "coordinates": [ [ [ [ -87.836580878743646, 41.986396111591276 ], [ -87.836630747145705, 41.974770880369711 ], [ -87.841556800036173, 41.974385398176402 ], [ -87.83793390092427, 41.973843704083691 ], [ -87.83665028725369, 41.970232492277937 ], [ -87.846533540782772, 41.971889878044102 ], [ -87.846570353366829, 41.96640703560449 ], [ -87.836682072241871, 41.966597154580036 ], [ -87.836432948514627, 41.944760729826378 ], [ -87.835120859003695, 41.94466766775956 ], [ -87.834810170938383, 41.937576421607091 ], [ -87.849620552606723, 41.937285353454591 ], [ -87.851806093629349, 41.939169670591198 ], [ -87.854935710704936, 41.949484160469581 ], [ -87.854072555725821, 41.951448552382018 ], [ -87.846612434614897, 41.951639176281624 ], [ -87.846604726000265, 41.955686812438259 ], [ -87.858523367870276, 41.956005051887033 ], [ -87.854867290523003, 41.966358512820243 ], [ -87.85413499526328, 41.971168176158429 ], [ -87.855361927110252, 41.972517158701876 ], [ -87.858922102263733, 41.971421535448947 ], [ -87.861902191949682, 41.973320676784965 ], [ -87.880772747372703, 41.97285455097844 ], [ -87.880788443626258, 41.957200453739354 ], [ -87.892899105436015, 41.958050563913751 ], [ -87.892877305067145, 41.950793772022081 ], [ -87.914731200336334, 41.952026160962681 ], [ -87.915227788707412, 41.956844760543675 ], [ -87.920000058801378, 41.95815125460576 ], [ -87.922170744862271, 41.958383514289103 ], [ -87.922168693994251, 41.95387269768235 ], [ -87.926352935916682, 41.954864082748891 ], [ -87.926356943068981, 41.95901683953651 ], [ -87.93208233539336, 41.959942029580247 ], [ -87.932254267832988, 41.96479938886381 ], [ -87.93477092898334, 41.964799892801963 ], [ -87.934763824273276, 41.966824634188832 ], [ -87.939718076049232, 41.964284938612316 ], [ -87.939930425045276, 41.993491403992387 ], [ -87.935524732175622, 42.00004039068039 ], [ -87.930402720118181, 42.004126332002166 ], [ -87.930362561148172, 42.00220648566664 ], [ -87.920515895837696, 42.001131072675399 ], [ -87.920510825941705, 42.004953430141789 ], [ -87.913770839236605, 42.005074690809948 ], [ -87.913770389528821, 42.008704538140513 ], [ -87.913027168123534, 42.005088052380785 ], [ -87.907673546426878, 42.005248673490762 ], [ -87.907680482018321, 42.008921806453102 ], [ -87.905750351978028, 42.008990596003351 ], [ -87.894294647360852, 42.005702172438014 ], [ -87.894346206606357, 42.002707648312089 ], [ -87.891889562341532, 42.00398670187559 ], [ -87.890385492655966, 42.002300095131666 ], [ -87.899236218672399, 42.001899176998933 ], [ -87.902404357667919, 42.004026999672654 ], [ -87.904062375128035, 42.003560441975061 ], [ -87.89745824030787, 42.000532194409935 ], [ -87.884960484209529, 41.998463120792941 ], [ -87.884542873927899, 41.99509891827703 ], [ -87.880354838602258, 41.995229851625169 ], [ -87.875857047678139, 41.98570134619797 ], [ -87.873730641917049, 41.976656999951231 ], [ -87.875882741217424, 41.976603466339718 ], [ -87.87589258616309, 41.973881413373718 ], [ -87.862008646444139, 41.973863526123239 ], [ -87.855877171485261, 41.981098578870267 ], [ -87.855835227296907, 41.989052097864871 ], [ -87.836580878743646, 41.986396111591276 ] ] ], [ [ [ -87.940012719987081, 41.998108137591927 ], [ -87.940114082523493, 42.000789318266371 ], [ -87.935143859419739, 42.000889116347651 ], [ -87.937079509264592, 41.998585741964575 ], [ -87.940012719987081, 41.998108137591927 ] ] ], [ [ [ -87.933580362079255, 42.008173526337501 ], [ -87.933889151925584, 42.001971778686311 ], [ -87.935094734563094, 42.000937858570708 ], [ -87.935287531929191, 42.008151433683132 ], [ -87.933580362079255, 42.008173526337501 ] ] ] ] } },
{ "type": "Feature", "properties": { ":id": "row-iehu.eivf-7cgt", ":version": "rv-m2rj-28qp.9xbq", ":created_at": "2025-04-22T23:06:36.944Z", ":updated_at": "2025-04-22T23:06:36.944Z", "area_numbe": "77", "community": "EDGEWATER", "area_num_1": "77", "shape_area": "48449990.8397", "shape_len": "31004.8309456", "crime_count": 16792, "risk_level": 1, "risk_name": "High Risk" }, "geometry": { "type": "Polygon", "coordinates": [ [ [ -87.65455590025104, 41.99816614970252 ], [ -87.654307892737521, 41.988406233362852 ], [ -87.650976931524752, 41.985722720592669 ], [ -87.649351807128156, 41.986393334651183 ], [ -87.650475128145274, 41.979457454486798 ], [ -87.647290344060153, 41.977747623683456 ], [ -87.651260401704135, 41.976459969940521 ], [ -87.674407567803698, 41.976103404416754 ], [ -87.675012500289554, 41.99799274710572 ], [ -87.65455590025104, 41.99816614970252 ] ] ] } }
]
}
